start=new Date('2022-09-08T00:00:00.000Z').valueOf();
sats=[{"LAUNCH_DATE":"2022-03-03","DECAY_DATE":null,"TLE_LINE2":"2 51884  53.2174 339.7489 0001502  65.2220 133.2788 15.08837780  1301","RCS_SIZE":"LARGE","CLASSIFICATION_TYPE":"U","MEAN_MOTION_DOT":"-0.00002256","GP_ID":"212010161","MEAN_MOTION_DDOT":"0.0000000000000","NORAD_CAT_ID":"51884","PERIAPSIS":"538.713","COUNTRY_CODE":"US","ELEMENT_SET_NO":"999","APOAPSIS":"540.791","PERIOD":"95.438","SITE":"AFETR","ARG_OF_PERICENTER":"65.2220","EPHEMERIS_TYPE":"0","RA_OF_ASC_NODE":"339.7489","SEMIMAJOR_AXIS":"6917.887","OBJECT_NAME":"STARLINK-3577","REV_AT_EPOCH":"130","TIME_SYSTEM":"UTC","MEAN_MOTION":"15.08837780","ECCENTRICITY":"0.00015020","CENTER_NAME":"EARTH","EPOCH":"2022-09-07T22:00:00.999936","MEAN_ELEMENT_THEORY":"SGP4","MEAN_ANOMALY":"133.2788","REF_FRAME":"TEME","FILE":"3563022","TLE_LINE1":"1 51884U 22022AJ  22250.91667824 -.00002256  00000-0 -12369-3 0  9999","OBJECT_TYPE":"PAYLOAD","BSTAR":"-0.00012369000000","INCLINATION":"53.2174","OBJECT_ID":"2022-022AJ"},{"MEAN_MOTION_DOT":"-0.00025859","GP_ID":"212010411","CLASSIFICATION_TYPE":"U","TLE_LINE2":"2 51885  53.2175 339.7679 0001477  59.3776 219.0667 15.08860172  1305","DECAY_DATE":null,"RCS_SIZE":"LARGE","LAUNCH_DATE":"2022-03-03","COUNTRY_CODE":"US","ELEMENT_SET_NO":"999","APOAPSIS":"540.705","SITE":"AFETR","PERIOD":"95.436","MEAN_MOTION_DDOT":"0.0000000000000","PERIAPSIS":"538.662","NORAD_CAT_ID":"51885","EPHEMERIS_TYPE":"0","ARG_OF_PERICENTER":"59.3776","ECCENTRICITY":"0.00014770","MEAN_MOTION":"15.08860172","REV_AT_EPOCH":"130","TIME_SYSTEM":"UTC","RA_OF_ASC_NODE":"339.7679","SEMIMAJOR_AXIS":"6917.819","OBJECT_NAME":"STARLINK-3584","REF_FRAME":"TEME","MEAN_ANOMALY":"219.0667","MEAN_ELEMENT_THEORY":"SGP4","EPOCH":"2022-09-07T22:00:00.999936","CENTER_NAME":"EARTH","TLE_LINE1":"1 51885U 22022AK  22250.91667824 -.00025859  00000-0 -16116-2 0  9997","FILE":"3563022","OBJECT_TYPE":"PAYLOAD","INCLINATION":"53.2175","OBJECT_ID":"2022-022AK","BSTAR":"-0.00161160000000"},{"FILE":"3563022","TLE_LINE1":"1 51886U 22022AL  22250.91667824 -.00049993  00000-0 -31442-2 0  9992","MEAN_ANOMALY":"178.5730","REF_FRAME":"TEME","CENTER_NAME":"EARTH","EPOCH":"2022-09-07T22:00:00.999936","MEAN_ELEMENT_THEORY":"SGP4","OBJECT_ID":"2022-022AL","INCLINATION":"53.2187","BSTAR":"-0.00314420000000","OBJECT_TYPE":"PAYLOAD","PERIOD":"95.437","SITE":"AFETR","ELEMENT_SET_NO":"999","COUNTRY_CODE":"US","APOAPSIS":"540.723","PERIAPSIS":"538.713","NORAD_CAT_ID":"51886","MEAN_MOTION_DDOT":"0.0000000000000","CLASSIFICATION_TYPE":"U","MEAN_MOTION_DOT":"-0.00049993","GP_ID":"212011661","LAUNCH_DATE":"2022-03-03","DECAY_DATE":null,"TLE_LINE2":"2 51886  53.2187 339.7620 0001453  59.9924 178.5730 15.08849049  1300","RCS_SIZE":"LARGE","REV_AT_EPOCH":"130","TIME_SYSTEM":"UTC","ECCENTRICITY":"0.00014530","MEAN_MOTION":"15.08849049","OBJECT_NAME":"STARLINK-3565","SEMIMAJOR_AXIS":"6917.853","RA_OF_ASC_NODE":"339.7620","EPHEMERIS_TYPE":"0","ARG_OF_PERICENTER":"59.9924"},{"MEAN_ANOMALY":"249.0205","REF_FRAME":"TEME","EPOCH":"2022-09-07T22:00:00.999936","CENTER_NAME":"EARTH","MEAN_ELEMENT_THEORY":"SGP4","FILE":"3563022","TLE_LINE1":"1 51887U 22022AM  22250.91667824 -.00062127  00000-0 -39175-2 0  9998","OBJECT_TYPE":"PAYLOAD","OBJECT_ID":"2022-022AM","INCLINATION":"53.2172","BSTAR":"-0.00391750000000","CLASSIFICATION_TYPE":"U","GP_ID":"212011413","MEAN_MOTION_DOT":"-0.00062127","LAUNCH_DATE":"2022-03-03","TLE_LINE2":"2 51887  53.2172 339.7663 0001575  49.5266 249.0205 15.08857583  1304","DECAY_DATE":null,"RCS_SIZE":"LARGE","SITE":"AFETR","PERIOD":"95.436","COUNTRY_CODE":"US","APOAPSIS":"540.781","ELEMENT_SET_NO":"999","NORAD_CAT_ID":"51887","PERIAPSIS":"538.602","MEAN_MOTION_DDOT":"0.0000000000000","EPHEMERIS_TYPE":"0","ARG_OF_PERICENTER":"49.5266","REV_AT_EPOCH":"130","TIME_SYSTEM":"UTC","MEAN_MOTION":"15.08857583","ECCENTRICITY":"0.00015750","OBJECT_NAME":"STARLINK-3551","RA_OF_ASC_NODE":"339.7663","SEMIMAJOR_AXIS":"6917.827"},{"MEAN_MOTION_DOT":"-0.00026599","GP_ID":"212010660","CLASSIFICATION_TYPE":"U","RCS_SIZE":"LARGE","TLE_LINE2":"2 51888  53.2173 339.7648 0001351  55.5162 203.0121 15.08842766  1307","DECAY_DATE":null,"LAUNCH_DATE":"2022-03-03","PERIOD":"95.437","SITE":"AFETR","COUNTRY_CODE":"US","ELEMENT_SET_NO":"999","APOAPSIS":"540.672","PERIAPSIS":"538.802","NORAD_CAT_ID":"51888","MEAN_MOTION_DDOT":"0.0000000000000","EPHEMERIS_TYPE":"0","ARG_OF_PERICENTER":"55.5162","ECCENTRICITY":"0.00013510","MEAN_MOTION":"15.08842766","REV_AT_EPOCH":"130","TIME_SYSTEM":"UTC","OBJECT_NAME":"STARLINK-3536","RA_OF_ASC_NODE":"339.7648","SEMIMAJOR_AXIS":"6917.872","REF_FRAME":"TEME","MEAN_ANOMALY":"203.0121","MEAN_ELEMENT_THEORY":"SGP4","CENTER_NAME":"EARTH","EPOCH":"2022-09-07T22:00:00.999936","TLE_LINE1":"1 51888U 22022AN  22250.91667824 -.00026599  00000-0 -16592-2 0  9990","FILE":"3563022","OBJECT_TYPE":"PAYLOAD","OBJECT_ID":"2022-022AN","INCLINATION":"53.2173","BSTAR":"-0.00165920000000"},{"RA_OF_ASC_NODE":"339.7602","SEMIMAJOR_AXIS":"6917.844","OBJECT_NAME":"STARLINK-3547","MEAN_MOTION":"15.08851899","ECCENTRICITY":"0.00015910","REV_AT_EPOCH":"130","TIME_SYSTEM":"UTC","ARG_OF_PERICENTER":"59.7249","EPHEMERIS_TYPE":"0","MEAN_MOTION_DDOT":"0.0000000000000","PERIAPSIS":"538.608","NORAD_CAT_ID":"51889","APOAPSIS":"540.810","COUNTRY_CODE":"US","ELEMENT_SET_NO":"999","SITE":"AFETR","PERIOD":"95.437","TLE_LINE2":"2 51889  53.2177 339.7602 0001591  59.7249 298.7016 15.08851899  1301","DECAY_DATE":null,"RCS_SIZE":"LARGE","LAUNCH_DATE":"2022-03-03","GP_ID":"212010910","MEAN_MOTION_DOT":"-0.00025773","CLASSIFICATION_TYPE":"U","BSTAR":"-0.00160650000000","INCLINATION":"53.2177","OBJECT_ID":"2022-022AP","OBJECT_TYPE":"PAYLOAD","TLE_LINE1":"1 51889U 22022AP  22250.91667824 -.00025773  00000-0 -16065-2 0  9999","FILE":"3563022","MEAN_ELEMENT_THEORY":"SGP4","CENTER_NAME":"EARTH","EPOCH":"2022-09-07T22:00:00.999936","REF_FRAME":"TEME","MEAN_ANOMALY":"298.7016"},{"MEAN_ELEMENT_THEORY":"SGP4","EPOCH":"2022-09-07T22:00:00.999936","CENTER_NAME":"EARTH","REF_FRAME":"TEME","MEAN_ANOMALY":"264.1454","TLE_LINE1":"1 51890U 22022AQ  22250.91667824 -.00038948  00000-0 -24420-2 0  9993","FILE":"3563022","OBJECT_TYPE":"PAYLOAD","BSTAR":"-0.00244200000000","INCLINATION":"53.2180","OBJECT_ID":"2022-022AQ","RCS_SIZE":"LARGE","TLE_LINE2":"2 51890  53.2180 339.7636 0001479  54.4084 264.1454 15.08844797  1300","DECAY_DATE":null,"LAUNCH_DATE":"2022-03-03","MEAN_MOTION_DOT":"-0.00038948","GP_ID":"212011163","CLASSIFICATION_TYPE":"U","MEAN_MOTION_DDOT":"0.0000000000000","NORAD_CAT_ID":"51890","PERIAPSIS":"538.708","COUNTRY_CODE":"US","APOAPSIS":"540.754","ELEMENT_SET_NO":"999","PERIOD":"95.437","SITE":"AFETR","ARG_OF_PERICENTER":"54.4084","EPHEMERIS_TYPE":"0","SEMIMAJOR_AXIS":"6917.866","RA_OF_ASC_NODE":"339.7636","OBJECT_NAME":"STARLINK-3519","ECCENTRICITY":"0.00014790","MEAN_MOTION":"15.08844797","TIME_SYSTEM":"UTC","REV_AT_EPOCH":"130"},{"EPHEMERIS_TYPE":"0","ARG_OF_PERICENTER":"63.1978","ECCENTRICITY":"0.00014830","MEAN_MOTION":"15.08851020","REV_AT_EPOCH":"130","TIME_SYSTEM":"UTC","OBJECT_NAME":"STARLINK-3549","SEMIMAJOR_AXIS":"6917.847","RA_OF_ASC_NODE":"339.7541","GP_ID":"212011912","MEAN_MOTION_DOT":"-0.00058265","CLASSIFICATION_TYPE":"U","RCS_SIZE":"LARGE","TLE_LINE2":"2 51891  53.2193 339.7541 0001483  63.1978 315.3705 15.08851020  1309","DECAY_DATE":null,"LAUNCH_DATE":"2022-03-03","SITE":"AFETR","PERIOD":"95.437","COUNTRY_CODE":"US","ELEMENT_SET_NO":"999","APOAPSIS":"540.738","PERIAPSIS":"538.686","NORAD_CAT_ID":"51891","MEAN_MOTION_DDOT":"0.0000000000000","OBJECT_TYPE":"PAYLOAD","OBJECT_ID":"2022-022AR","INCLINATION":"53.2193","BSTAR":"-0.00367150000000","REF_FRAME":"TEME","MEAN_ANOMALY":"315.3705","MEAN_ELEMENT_THEORY":"SGP4","EPOCH":"2022-09-07T22:00:00.999936","CENTER_NAME":"EARTH","TLE_LINE1":"1 51891U 22022AR  22250.91667824 -.00058265  00000-0 -36715-2 0  9998","FILE":"3563022"},{"TLE_LINE1":"1 51892U 22022AS  22250.91667824 -.00025982  00000-0 -16200-2 0  9996","FILE":"3563022","MEAN_ELEMENT_THEORY":"SGP4","CENTER_NAME":"EARTH","EPOCH":"2022-09-07T22:00:00.999936","REF_FRAME":"TEME","MEAN_ANOMALY":"280.9670","BSTAR":"-0.00162000000000","OBJECT_ID":"2022-022AS","INCLINATION":"53.2186","OBJECT_TYPE":"PAYLOAD","NORAD_CAT_ID":"51892","PERIAPSIS":"538.715","MEAN_MOTION_DDOT":"0.0000000000000","PERIOD":"95.437","SITE":"AFETR","COUNTRY_CODE":"US","APOAPSIS":"540.735","ELEMENT_SET_NO":"999","DECAY_DATE":null,"TLE_LINE2":"2 51892  53.2186 339.7650 0001460  57.4389 280.9670 15.08846779  1303","RCS_SIZE":"LARGE","LAUNCH_DATE":"2022-03-03","GP_ID":"212010162","MEAN_MOTION_DOT":"-0.00025982","CLASSIFICATION_TYPE":"U","OBJECT_NAME":"STARLINK-3587","RA_OF_ASC_NODE":"339.7650","SEMIMAJOR_AXIS":"6917.860","ECCENTRICITY":"0.00014600","MEAN_MOTION":"15.08846779","TIME_SYSTEM":"UTC","REV_AT_EPOCH":"130","ARG_OF_PERICENTER":"57.4389","EPHEMERIS_TYPE":"0"},{"COUNTRY_CODE":"US","ELEMENT_SET_NO":"999","APOAPSIS":"540.781","SITE":"AFETR","PERIOD":"95.437","MEAN_MOTION_DDOT":"0.0000000000000","NORAD_CAT_ID":"51893","PERIAPSIS":"538.647","MEAN_MOTION_DOT":"-0.00023964","GP_ID":"212010412","CLASSIFICATION_TYPE":"U","TLE_LINE2":"2 51893  53.2190 339.7508 0001543  52.9520   5.5435 15.08850285  1307","DECAY_DATE":null,"RCS_SIZE":"LARGE","LAUNCH_DATE":"2022-03-03","MEAN_MOTION":"15.08850285","ECCENTRICITY":"0.00015430","TIME_SYSTEM":"UTC","REV_AT_EPOCH":"130","RA_OF_ASC_NODE":"339.7508","SEMIMAJOR_AXIS":"6917.849","OBJECT_NAME":"STARLINK-3579","EPHEMERIS_TYPE":"0","ARG_OF_PERICENTER":"52.9520","TLE_LINE1":"1 51893U 22022AT  22250.91667824 -.00023964  00000-0 -14922-2 0  9994","FILE":"3563022","REF_FRAME":"TEME","MEAN_ANOMALY":"5.5435","MEAN_ELEMENT_THEORY":"SGP4","EPOCH":"2022-09-07T22:00:00.999936","CENTER_NAME":"EARTH","INCLINATION":"53.2190","OBJECT_ID":"2022-022AT","BSTAR":"-0.00149220000000","OBJECT_TYPE":"PAYLOAD"}];
